#cP2022  3  3 18  0  0.00000000     576 d+D   IGb14 EXT AIUB
## 2199 410400.00000000   300.00000000 59641 0.7500000000000
+   70   G01G02G03G04G05G06G07G08G09G10G11G12G13G14G15G16G17
+        G18G19G20G21G22G23G24G25G26G27G28G29G30G31G32R01R02
+        R03R04R05R07R08R09R11R12R13R14R15R17R18R19R20R21R22
+        R24E01E02E10E11E12E13E14E15E18E21E25E26E27E30E31E33
+        E34E36  0  0  0  0  0  0  0  0  0  0  0  0  0  0  0
++         5  7  6  7  7  6  7  7  6  6  8  7  7  7  7  7  7
++         8  7  7  7  7  7  7  6  6  9  7  7  5  6  6  9  7
++         8  8  8  8  7  6  7  6  7  7  6  8  7  9  9  8  7
++         8  6  6  7  6  7  6  6  6  7  6  5  6  6  6  6  7
++         6  6  0  0  0  0  0  0  0  0  0  0  0  0  0  0  0
%c M  cc GPS ccc cccc cccc cccc cccc ccccc ccccc ccccc ccccc
%c cc cc ccc ccc cccc cccc cccc cccc ccccc ccccc ccccc ccccc
%f  1.2500000  1.025000000  0.00000000000  0.000000000000000
%f  0.0000000  0.000000000  0.00000000000  0.000000000000000
%i    0    0    0    0      0      0      0      0         0
%i    0    0    0    0      0      0      0      0         0
/* Center for Orbit Determination in Europe (CODE)          
/* Ultra-rapid GRE orbits starting year-day 22062 18 hour   
/* Observed/predicted: 24/24 hours (data used up to 063R)   
/* PCV:IGS14      OL/AL:FES2014b NONE     YN ORB:CoN CLK:BRD
*  2022  3  5 12  5  0.00000000
PG01 -20799.155226 -11969.726192  11477.100381    416.351306               P   P
PG02  13311.530706  21246.219270   9211.972174   -651.851514               P   P
PG03 -14726.739679  -2774.827344  21820.926818   -149.570787               P   P
PG04 -25044.939207  -1662.994585   8818.440252   -185.707744               P   P
PG05   7707.561758  18454.960068 -17562.353364    -73.590187               P   P
PG06   -929.799606  18127.470718  19430.707649    221.231207               P   P
PG07 -16465.600563   3362.109307 -20292.622576    314.310524               P   P
PG08 -18869.753980  -7742.281034 -17228.190102    -58.634447               P   P
PG09 -25446.067555   7453.315796  -1890.262552   -351.329712               P   P
PG10  11564.636782 -22909.425842  -6078.151619   -337.874366               P   P
PG11  11117.354216  22691.041677   8205.231314    -70.945114               P   P
PG12  13173.310674   7098.056681  21681.148138   -180.256403               P   P
PG13  10752.003296  13270.665060 -20535.157512    271.771320               P   P
PG14 -13115.783028  22032.832520  -6785.632234    -90.729572               P   P
PG15  20110.705865   6157.185099 -16810.484930    -79.136095               P   P
PG16  -2598.786407 -21337.560540 -15555.286204   -477.040851               P   P
PG17 -16753.614593  13491.697774  16046.841720    583.232062               P   P
PG18  15960.429962  -3538.825754 -20956.566081    226.781618               P   P
PG19  -9443.009129  14468.860621  19856.964425    126.999180               P   P
PG20   3020.864343  24826.618519  -9300.097106    516.437510               P   P
PG21 -20803.431496 -16962.467900   2610.805510    158.978477               P   P
PG22   5573.740216 -15608.069293  21120.400276    222.844338               P   P
PG23  15493.077662 -14769.421823 -15673.867292     -4.171361               P   P
PG24  21899.889516  13665.094008   6809.272506    270.591917               P   P
PG25  16426.937659  -7429.555564  19123.206117    294.100540               P   P
PG26   3923.526327 -25845.880669  -3716.086086    188.319323               P   P
PG27  -7632.514173 -13506.388815 -21802.620446    143.276323               P   P
PG28  -8884.984811  25092.570096   2370.139191    387.158604               P   P
PG29  26328.039029  -3740.203452    -10.936531   -487.684938               P   P
PG30 -10214.941986  12074.037885 -21248.651289   -516.991869               P   P
PG31   -574.904540 -19599.545387  17568.739145   -167.542324               P   P
PG32  12397.718588 -15533.516033  17659.790310    -78.944160               P   P
PR01   7118.950231 -16972.818244  17672.205488      7.170253               P   P
PR02 -10525.499484  -5317.711179  22671.245257    511.487015               P   P
PR03 -20355.705310   8245.849119  13069.374270     52.539632               P   P
PR04 -18734.632447  16922.946412  -3654.288740    130.529396               P   P
PR05  -6875.537564  16293.744034 -18378.624700     88.842720               P   P
PR07  20477.741736  -8745.920060 -12357.797614     32.336918               P   P
PR08  18552.778654 -17057.129710   3909.996646    -63.841231               P   P
PR09  10435.655599  17964.069674  14763.151420     42.727076               P   P
PR11   6038.915254 -16680.181827  18339.922696     44.272140               P   P
PR12  -2854.866876 -25243.689158   2181.485595     17.368920               P   P
PR13  -9909.155409 -18953.376429 -13918.993408    -19.056504               P   P
PR14 -11302.332626   -576.581643 -22855.611420     75.046686               P   P
PR15  -6000.177526  17258.544903 -17787.612009     97.783282               P   P
PR17 -23214.211822  -4663.660886   9458.419329    506.976874               P   P
PR18 -13066.437183   5004.752944  21359.772382    109.293005               P   P
PR19   2579.958011  11966.486110  22380.176588   -180.400415               P   P
PR20  19988.562825  13104.957062   8850.422339    -66.064298               P   P
PR21  22777.661878   4013.566872 -10776.824085   -282.820295               P   P
PR22  12127.659873  -5456.598147 -21754.477152   -168.598911               P   P
PR24 -20638.099658 -12623.979194  -8057.648984     82.968593               P   P
PE01 -17076.930709   2545.606659 -24048.944816   -590.894491               P   P
PE02  17079.801504  -2695.649135  24014.023712    284.266547               P   P
PE10  -2503.821437  17689.134717  23597.396475   -498.761826               P   P
PE11   7686.622884  21908.028112  18344.383296   4306.584420               P   P
PE12 -11978.510034  10972.668225  24748.680078   4728.818539               P   P
PE13  -7164.665608 -21695.026133 -18818.793795    427.035963               P   P
PE14  22240.923354   7258.211272  12821.184904  -1767.410874               P   P
PE15  12002.004529 -10845.604374 -24778.940224    759.637935               P   P
PE18 -13927.257549 -16022.398578 -21481.040289  -1720.217115               P   P
PE21 -11217.444868 -17758.474240 -20858.393409   -720.747688               P   P
PE25  11072.057308  18017.204926  20715.551452   -565.729457               P   P
PE26 -22380.418516 -19357.729586   -840.260066   -876.806857               P   P
PE27   1426.287604 -29042.349232  -5497.924169   -246.215184               P   P
PE30  13696.694895 -22297.820843  13800.282741   -323.793982               P   P
PE31 -13124.040601  23153.308101 -12965.364825   -493.075066               P   P
PE33 -24018.542313  -6356.570566  16108.458993   -458.858935               P   P
PE34  23963.763925   6130.475196 -16260.177770   -505.123401               P   P
PE36  21977.146637  19730.466640   1862.137298   -340.970497               P   P
EOF
